OBJECT_NAME,OBJECT_ID,EPOCH,MEAN_MOTION,ECCENTRICITY,INCLINATION,RA_OF_ASC_NODE,ARG_OF_PERICENTER,MEAN_ANOMALY,EPHEMERIS_TYPE,CLASSIFICATION_TYPE,NORAD_CAT_ID,ELEMENT_SET_NO,REV_AT_EPOCH,BSTAR,MEAN_MOTION_DOT,MEAN_MOTION_DDOT
SWARM B,2013-067A,2026-07-23T08:01:45.533856,15.28756686,.00022541,87.7464,331.3375,92.1283,268.0224,0,U,39451,999,68876,.11645532E-3,.3288E-4,0
SWARM A,2013-067B,2026-07-23T05:11:46.729248,15.50718876,.00032871,87.3303,42.8420,90.2224,269.9413,0,U,39452,999,71183,.17316733E-3,.999E-4,0
SWARM C,2013-067C,2026-07-23T06:43:46.700832,15.50722919,.00032691,87.3304,41.3987,90.7688,269.3947,0,U,39453,999,71180,.17030674E-3,.9827E-4,0
BRITE-CA1 (TORONTO),2014-033L,2026-07-23T07:40:22.306368,14.72735524,.00790711,97.9779,332.5905,160.3248,200.1041,0,U,40020,999,64753,.15678039E-3,.998E-5,0
OCO 2,2014-035A,2026-07-23T06:36:28.778112,14.57136902,.00013984,98.2021,145.0208,80.8486,279.2871,0,U,40059,999,64130,.82605885E-4,.327E-5,0
BRITE-PL2 (HEWELIUSZ),2014-049B,2026-07-23T06:09:14.112576,14.94705750,.0013589,97.9122,316.5421,355.9834,4.1275,0,U,40119,999,64683,.17276837E-3,.1818E-4,0
MMS 1,2015-011A,2026-07-23T08:00:01.999872,0.28359753,.83013661,72.5758,348.3691,168.1867,25.7607,0,U,40482,999,138,0,-.156E-4,0
MMS 2,2015-011B,2026-07-23T08:00:01.999872,0.28359688,.83041769,72.5799,348.3681,168.1894,25.7468,0,U,40483,999,138,0,-.1561E-4,0
MMS 3,2015-011C,2026-07-23T08:00:01.999872,0.28359666,.83025443,72.5795,348.3801,168.1972,25.7209,0,U,40484,999,135,0,-.156E-4,0
MMS 4,2015-011D,2026-07-23T08:00:01.999872,0.28359757,.83025096,72.5750,348.3635,168.2070,25.7173,0,U,40485,999,138,0,-.156E-4,0
ASTROSAT,2015-052A,2026-07-22T22:44:27.219264,14.82561415,.00079696,5.9965,257.9494,189.8849,170.1122,0,U,40930,999,58514,.9516149E-4,.1455E-4,0
DAMPE,2015-078A,2026-07-23T06:00:41.397696,15.30868155,.00106385,97.4576,209.8983,314.8917,45.1460,0,U,41173,999,59006,.42921596E-4,.1203E-4,0
PISAT,2016-059B,2026-07-23T05:52:09.222816,14.69040708,.00305806,97.8196,203.1513,90.3402,270.1309,0,U,41784,999,52503,.15676961E-3,.879E-5,0
HXMT (HUIYAN),2017-034A,2026-07-22T18:48:05.436000,15.18737052,.00312561,43.0151,344.7924,8.7119,351.4266,0,U,42758,999,50307,.25187028E-3,.5151E-4,0
FLYING LAPTOP,2017-042G,2026-07-23T07:28:14.711232,15.01350719,.00191794,97.4850,358.4943,6.7641,353.3839,0,U,42831,999,49187,.25790654E-3,.3277E-4,0
ZHANGHENG 1-01 (CSES-1),2018-015C,2026-07-23T07:50:21.531840,15.20689568,.00169793,97.6901,10.7077,138.0060,222.2480,0,U,43194,999,47013,.35242898E-3,.7703E-4,0
SALSAT,2020-068K,2026-07-23T05:54:11.724192,15.30255611,.00100696,97.8868,209.5206,165.1541,194.9995,0,U,46495,999,32087,.25761612E-3,.7467E-4,0
IXPE,2021-121A,2026-07-23T08:00:01.999872,15.10542871,.00074546,0.2320,43.8893,268.0853,216.3185,0,U,49954,999,529,.5614209E-3,.10478E-3,0
SMILE,2026-109A,2026-07-13T23:01:31.580256,0.47500629,.83137076,70.0512,206.6048,286.9544,0.1879,0,U,69123,999,6,0,.936E-5,0
