SWARM B                 
1 39451U 13067A   26204.33455479  .00003288  00000+0  11646-3 0  9994
2 39451  87.7464 331.3375 0002254  92.1283 268.0224 15.28756686688766
SWARM A                 
1 39452U 13067B   26204.21651307  .00009990  00000+0  17317-3 0  9997
2 39452  87.3303  42.8420 0003287  90.2224 269.9413 15.50718876711830
SWARM C                 
1 39453U 13067C   26204.28040163  .00009827  00000+0  17031-3 0  9999
2 39453  87.3304  41.3987 0003269  90.7688 269.3947 15.50722919711809
BRITE-CA1 (TORONTO)     
1 40020U 14033L   26204.31970262  .00000998  00000+0  15678-3 0  9996
2 40020  97.9779 332.5905 0079071 160.3248 200.1041 14.72735524647534
OCO 2                   
1 40059U 14035A   26204.27533308  .00000327  00000+0  82606-4 0  9993
2 40059  98.2021 145.0208 0001398  80.8486 279.2871 14.57136902641305
BRITE-PL2 (HEWELIUSZ)   
1 40119U 14049B   26204.25641334  .00001818  00000+0  17277-3 0  9999
2 40119  97.9122 316.5421 0013589 355.9834   4.1275 14.94705750646830
MMS 1                   
1 40482U 15011A   26204.33335648 -.00001560  00000+0  00000+0 0  9996
2 40482  72.5758 348.3691 8301366 168.1867  25.7607  0.28359753  1383
MMS 2                   
1 40483U 15011B   26204.33335648 -.00001561  00000+0  00000+0 0  9998
2 40483  72.5799 348.3681 8304176 168.1894  25.7468  0.28359688  1382
MMS 3                   
1 40484U 15011C   26204.33335648 -.00001560  00000+0  00000+0 0  9998
2 40484  72.5795 348.3801 8302544 168.1972  25.7209  0.28359666  1353
MMS 4                   
1 40485U 15011D   26204.33335648 -.00001560  00000+0  00000+0 0  9999
2 40485  72.5750 348.3635 8302509 168.2070  25.7173  0.28359757  1385
ASTROSAT                
1 40930U 15052A   26203.94753726  .00001455  00000+0  95161-4 0  9995
2 40930   5.9965 257.9494 0007969 189.8849 170.1122 14.82561415585144
DAMPE                   
1 41173U 15078A   26204.25047914  .00001203  00000+0  42922-4 0  9991
2 41173  97.4576 209.8983 0010638 314.8917  45.1460 15.30868155590068
PISAT                   
1 41784U 16059B   26204.24455119  .00000879  00000+0  15677-3 0  9992
2 41784  97.8196 203.1513 0030580  90.3402 270.1309 14.69040708525031
HXMT (HUIYAN)           
1 42758U 17034A   26203.78339625  .00005151  00000+0  25187-3 0  9994
2 42758  43.0151 344.7924 0031256   8.7119 351.4266 15.18737052503079
FLYING LAPTOP           
1 42831U 17042G   26204.31128138  .00003277  00000+0  25791-3 0  9998
2 42831  97.4850 358.4943 0019179   6.7641 353.3839 15.01350719491875
ZHANGHENG 1-01 (CSES-1) 
1 43194U 18015C   26204.32663810  .00007703  00000+0  35243-3 0  9995
2 43194  97.6901  10.7077 0016979 138.0060 222.2480 15.20689568470132
SALSAT                  
1 46495U 20068K   26204.24596903  .00007467  00000+0  25762-3 0  9994
2 46495  97.8868 209.5206 0010069 165.1541 194.9995 15.30255611320874
IXPE                    
1 49954U 21121A   26204.33335648  .00010478  00000+0  56142-3 0  9997
2 49954   0.2320  43.8893 0007454 268.0853 216.3185 15.10542871  5293
SMILE                   
1 69123U 26109A   26194.95939329  .00000936  00000+0  00000+0 0  9996
2 69123  70.0512 206.6048 8313707 286.9544   0.1879  0.47500629    65
